PROMETHEUS 2-1          
1 41854U 16067G   25128.52382319  .00043930  00000+0  90975-3 0  9994
2 41854  98.0812 338.1842 0005850  16.9243 343.2198 15.45625168465451
PROMETHEUS 2-3          
1 41855U 16067H   25128.53306615  .00044856  00000+0  92946-3 0  9999
2 41855  98.0759 337.3850 0005147  28.9132 331.2399 15.45607260465454
CORVUS BC2              
1 42846U 17042X   25128.88323529  .00004346  00000+0  32871-3 0  9996
2 42846  97.3736 303.0029 0015188  58.5662 301.7046 15.02735067426271
CORVUS BC1              
1 42847U 17042Y   25128.93935362  .00004342  00000+0  32652-3 0  9990
2 42847  97.3768 303.5668 0013966  39.0404 321.1827 15.02976770426306
MIRATA                  
1 43015U 17073C   25128.92597032  .00062276  00000+0  11379-2 0  9991
2 43015  97.5443  22.4511 0087822 198.5123 161.2925 15.44934600405919
MAKERSAT 0              
1 43016U 17073D   25128.64247635  .00012419  00000+0  51213-3 0  9998
2 43016  97.5245   7.1521 0147442 250.5560 107.9691 15.14731571404904
SIRION PATHFINDER-2     
1 43759U 18099B   25128.70137513  .00006504  00000+0  40855-3 0  9999
2 43759  97.4800 182.3954 0008368 250.6239 109.4086 15.09567776351507
CORVUS BC4              
1 43767U 18099K   25128.63517987  .00004686  00000+0  30761-3 0  9991
2 43767  97.4614 178.2977 0007791 320.4288  39.6371 15.08094419351348
MOVE-II                 
1 43780U 18099Y   25128.46583439  .00158207  00000+0  16402-2 0  9996
2 43780  97.4678 201.9447 0005715 220.7479 139.3353 15.64144802352766
SPACEBEE-7              
1 43816U 18099BL  25128.73009696  .00029613  00000+0  88745-3 0  9992
2 43816  97.4977 198.4069 0006462 211.9351 148.1501 15.34433946351915
SHIELDS 1               
1 43850U 18104B   25128.88066162  .00034218  00000+0  43629-3 0  9993
2 43850  85.0158  58.8356 0003033 261.8757  98.2160 15.59140774356518
SONATE                  
1 44400U 19038Q   25128.60809401  .00175298  00000+0  90538-3 0  9998
2 44400  97.6947 151.5839 0003295  42.8592 317.2931 15.80620649324508
DUCHIFAT-3              
1 44854U 19089C   25128.57559087  .00043171  00000+0  92107-3 0  9993
2 44854  36.9434 198.2758 0000709   2.8206 357.2554 15.43922417297995
M2 PATHFINDER           
1 45727U 20037E   25128.96390789  .00004142  00000+0  31980-3 0  9990
2 45727  97.8170 311.3862 0014975  83.7272 276.5658 15.02031554264768
NETSAT-4                
1 46504U 20068U   25128.49637234  .00015876  00000+0  55631-3 0  9990
2 46504  97.8434 104.5378 0005922 332.5725  27.5200 15.29551787253645
NETSAT-3                
1 46505U 20068V   25128.45823992  .00014172  00000+0  51892-3 0  9998
2 46505  97.8434 103.5145 0006073 345.4965  14.6098 15.28136463253601
NETSAT-1                
1 46506U 20068W   25128.47843432  .00011221  00000+0  47180-3 0  9999
2 46506  97.8459 101.5909 0006372   0.4013 359.7226 15.23575732253471
NETSAT-2                
1 46507U 20068X   25128.47865933  .00015391  00000+0  54584-3 0  9998
2 46507  97.8433 104.0262 0005427   7.7480 352.3842 15.29167326253589
WILDTRACKCUBE-SIMBA     
1 47941U 21022K   25128.95925371  .00032820  00000+0  72845-3 0  9994
2 47941  97.4261  32.8194 0012533  73.4667 286.7956 15.43569420228318
GRBALPHA                
1 47959U 21022AD  25128.91889401  .00282448  00000+0  13564-2 0  9997
2 47959  97.4165  40.9192 0008010  93.8448 266.3736 15.81904467227669
LEDSAT                  
1 49069U 21073D   25128.78367665  .00061385  00000+0  85624-3 0  9997
2 49069  97.3908 209.0929 0011899 190.2328 169.8686 15.56623275206486
ROBUSTA-1F (MTCUBE 2)   
1 53109U 22080E   25127.28463595 -.00000003  00000+0  00000+0 0  9991
2 53109  70.1319  79.3973 0008654  15.2861 344.8058  6.42584236 65985
SITRO-AIS 5 (KATYS)     
1 57176U 23091L   25128.94537581  .00010744  00000+0  51214-3 0  9992
2 57176  97.5612 185.8548 0015857  83.2274 277.0764 15.19177514102770
SITRO-AIS 6 (CHIRKIN)   
1 57192U 23091AC  25128.93089749  .00010304  00000+0  49258-3 0  9994
2 57192  97.5610 185.8556 0015784  83.0644 277.2385 15.19091801102778
SITRO-AIS 8 (ANOKHIN)   
1 57193U 23091AD  25128.93289190  .00011539  00000+0  53028-3 0  9998
2 57193  97.5606 186.2968 0015193  83.1680 277.1283 15.20433424102804
SITRO-AIS 7 (FARTUSHNIY)
1 57194U 23091AE  25128.95055660  .00010968  00000+0  52537-3 0  9993
2 57194  97.5611 185.8191 0015669  83.6349 276.6669 15.19004275102773
SITRO-AIS 10 (BURDAEV)  
1 57199U 23091AK  25128.91662060  .00014003  00000+0  58574-3 0  9993
2 57199  97.5619 188.4378 0010686  71.1664 289.0731 15.23647619102934
SITRO-AIS 9 (SHCHUKIN)  
1 57201U 23091AM  25128.93061262  .00013715  00000+0  57670-3 0  9991
2 57201  97.5614 188.3765 0010688  71.2848 288.9547 15.23476435102938
SITRO-AIS 12 (SMIRENNIY)
1 57204U 23091AQ  25128.91692830  .00014442  00000+0  60342-3 0  9991
2 57204  97.5624 188.6304 0010427  65.6242 294.6082 15.23682644102940
SITRO-AIS 11 (SHEFFER)  
1 57208U 23091AU  25128.93954005  .00013490  00000+0  56088-3 0  9996
2 57208  97.5622 188.7336 0010328  66.1582 294.0736 15.23864970102956
VERONIKA                
1 58261U 23174F   25128.89671246  .00116571  00000+0  12928-2 0  9994
2 58261  97.4143 213.3680 0007035 174.4793 185.6544 15.62541399 83723
ROBUSTA-1E (ENSO)       
1 58470U 23185J   25128.95956138  .00053814  00000+0  87409-3 0  9998
2 58470  97.3761 203.1433 0008747 189.4496 170.6594 15.52508917 80128
SITRO-AIS 30            
1 59053U 24039C   25128.86655426  .01197879  87912-3  14410-2 0  9994
2 59053  97.3969 105.0059 0010651 148.3037 211.8888 16.08386639 66981
SITRO-AIS 31            
1 59054U 24039D   25128.79904861  .04867913  25111-5  12472-2 0  9994
2 59054  97.3994 105.4395 0008303 191.9667 168.1430 16.28749122 67026
SITRO-AIS 32            
1 59057U 24039G   25128.95823783  .01700925  25092-2  14357-2 0  9993
2 59057  97.4111 105.3941 0009362 160.6387 199.5256 16.14219755 67028
SITRO-AIS 36            
1 59059U 24039J   25128.83391801  .02668078  24505-5  12046-2 0  9990
2 59059  97.3958 105.5163 0008822 180.2231 179.9057 16.22038068 67028
SITRO-AIS 49            
1 59060U 24039K   25128.82462772  .01376678  13135-2  14061-2 0  9991
2 59060  97.4014 105.2377 0009664 152.6962 207.4832 16.11060351 67001
SITRO-AIS 25            
1 59066U 24039R   25128.93884107  .00003865  00000+0  33264-3 0  9994
2 59066  95.3755 318.4924 0154569 297.2757  61.2794 14.88861700 64486
SITRO-AIS 26            
1 59067U 24039S   25128.96159341  .00003364  00000+0  29098-3 0  9997
2 59067  95.3756 318.4720 0154776 297.4033  61.1515 14.88713849 64481
SITRO-AIS 27            
1 59068U 24039T   25128.89625011  .00003392  00000+0  29141-3 0  9992
2 59068  95.3757 318.5405 0154046 297.0316  61.5253 14.89035544 64487
SITRO-AIS 28            
1 59071U 24039U   25128.95138814  .00003598  00000+0  30871-3 0  9993
2 59071  95.3759 318.6026 0153892 296.7536  61.8010 14.89076537 64493
GRBBETA                 
1 60237U 24128C   25128.65787965  .00003965  00000+0  30628-3 0  9990
2 60237  61.9913 190.8337 0049240  50.2209 310.3202 15.02349758 45405
OOV-CUBE (TUBSAT-30)    
1 60240U 24128F   25128.66861508  .00002595  00000+0  21860-3 0  9997
2 60240  61.9956 193.1867 0048799  47.0090 313.5074 15.00074859 45373
ROBUSTA-3A (MEDITERRAN*)
1 60243U 24128J   25128.53841562  .00006596  00000+0  47556-3 0  9999
2 60243  61.9885 190.7156 0047722  43.5804 316.9041 15.04196812 45403
LASARSAT                
1 62391U 24247Q   25128.29256820  .00015959  00000+0  63838-3 0  9991
2 62391  44.9884 335.6776 0008426 217.6202 142.4092 15.24947261 21137
CROCUBE                 
1 62394U 24247T   25128.29032851  .00016506  00000+0  65663-3 0  9997
2 62394  44.9862 335.6545 0009034 217.0317 142.9942 15.25103528 21137
